API VERSION: 1.2
API SOURCE: NASA/JPL Horizons API

*******************************************************************************
 Revised: April 12, 2021        Jupiter Barycenter                            5
 
 Dynamical point:
 ---------------
 The location of the center-of-mass of the Jupiter system. The point about 
 which Jupiter and its satellites revolve. See 599 for Jupiter center.
*******************************************************************************


*******************************************************************************
Ephemeris / API_USER Sat May 17 05:21:55 2025 Pasadena, USA      / Horizons
*******************************************************************************
Target body name: Jupiter Barycenter (5)          {source: DE441}
Center body name: Sun (10)                        {source: DE441}
Center-site name: BODY CENTER
*******************************************************************************
Start time      : A.D. 2005-Jan-01 00:00:00.0000 TDB
Stop  time      : A.D. 2025-Jan-01 00:00:00.0000 TDB
Step-size       : 1440 minutes
*******************************************************************************
Center geodetic : 0.0, 0.0, 0.0                   {E-lon(deg),Lat(deg),Alt(km)}
Center cylindric: 0.0, 0.0, 0.0                   {E-lon(deg),Dxy(km),Dz(km)}
Center radii    : 695700.0, 695700.0, 695700.0 km {Equator_a, b, pole_c}
Output units    : KM-S
Calendar mode   : Mixed Julian/Gregorian
Output type     : GEOMETRIC cartesian states
Output format   : 3 (position, velocity, LT, range, range-rate)
Reference frame : Ecliptic of J2000.0
*******************************************************************************
JDTDB
   X     Y     Z
   VX    VY    VZ
   LT    RG    RR
*******************************************************************************
$$SOE
2453506.500000000 = A.D. 2005-May-16 00:00:00.0000 TDB 
 X =-7.799916867377702E+08 Y =-2.398646314179054E+08 Z = 1.844977338805446E+07
 VX= 3.681283594007938E+00 VY=-1.188405471033238E+01 VZ=-3.303651521223117E-02
 LT= 2.722713666856446E+03 RG= 8.162490226170871E+08 RR=-2.623673980859987E-02
2453507.500000000 = A.D. 2005-May-17 00:00:00.0000 TDB 
 X =-7.796729127557564E+08 Y =-2.408911947807271E+08 Z = 1.844690221425109E+07
 VX= 3.697742671640341E+00 VY=-1.187898248188854E+01 VZ=-3.342583240658481E-02
 LT= 2.722705983901871E+03 RG= 8.162467193252501E+08 RR=-2.708019415713686E-02
2453508.500000000 = A.D. 2005-May-18 00:00:00.0000 TDB 
 X =-7.793527169938245E+08 Y =-2.419173189664516E+08 Z = 1.844399740576294E+07
 VX= 3.714195162003538E+00 VY=-1.187388857553312E+01 VZ=-3.381509584180087E-02
 LT= 2.722698057870157E+03 RG= 8.162443431607205E+08 RR=-2.792360741533223E-02
2453509.500000000 = A.D. 2005-May-19 00:00:00.0000 TDB 
 X =-7.790311000221922E+08 Y =-2.429430021025557E+08 Z = 1.844105896724311E+07
 VX= 3.730641040228605E+00 VY=-1.186877300170518E+01 VZ=-3.420430533890695E-02
 LT= 2.722689888773374E+03 RG= 8.162418941271163E+08 RR=-2.876697806108789E-02
2453510.500000000 = A.D. 2005-May-20 00:00:00.0000 TDB 
 X =-7.787080624132040E+08 Y =-2.439682423174334E+08 Z = 1.843808690335682E+07
 VX= 3.747080281984740E+00 VY=-1.186363577119148E+01 VZ=-3.459346079593306E-02
 LT= 2.722681476623978E+03 RG= 8.162393722281717E+08 RR=-2.961030496447581E-02
2453511.500000000 = A.D. 2005-May-21 00:00:00.0000 TDB 
 X =-7.783836047412781E+08 Y =-2.449930377404240E+08 Z = 1.843508121877451E+07
 VX= 3.763512863601496E+00 VY=-1.185847689507610E+01 VZ=-3.498256219492379E-02
 LT= 2.722672821434675E+03 RG= 8.162367774676964E+08 RR=-3.045358751586789E-02
2453512.500000000 = A.D. 2005-May-22 00:00:00.0000 TDB 
 X =-7.780577275828453E+08 Y =-2.460173865018346E+08 Z = 1.843204191816443E+07
 VX= 3.779938762200522E+00 VY=-1.185329638465865E+01 VZ=-3.537160960724250E-02
 LT= 2.722663923218260E+03 RG= 8.162341098495255E+08 RR=-3.129682577268048E-02
2453513.500000000 = A.D. 2005-May-23 00:00:00.0000 TDB 
 X =-7.777304315162740E+08 Y =-2.470412867329533E+08 Z = 1.842896900618459E+07
 VX= 3.796357955829885E+00 VY=-1.184809425133316E+01 VZ=-3.576060319589391E-02
 LT= 2.722654781987391E+03 RG= 8.162313693774540E+08 RR=-3.214002062076118E-02
2453514.500000000 = A.D. 2005-May-24 00:00:00.0000 TDB 
 X =-7.774017171217842E+08 Y =-2.480647365660515E+08 Z = 1.842586248747510E+07
 VX= 3.812770423589811E+00 VY=-1.184287050642051E+01 VZ=-3.614954321327435E-02
 LT= 2.722645397754334E+03 RG= 8.162285560551594E+08 RR=-3.298317394229874E-02
2453515.500000000 = A.D. 2005-May-25 00:00:00.0000 TDB 
 X =-7.770715849813524E+08 Y =-2.490877341343673E+08 Z = 1.842272236665066E+07
 VX= 3.829176145735181E+00 VY=-1.183762516094971E+01 VZ=-3.653842999259105E-02
 LT= 2.722635770530646E+03 RG= 8.162256698861064E+08 RR=-3.382628877820607E-02
2453516.500000000 = A.D. 2005-May-26 00:00:00.0000 TDB 
 X =-7.767400356786096E+08 Y =-2.501102775720698E+08 Z = 1.841954864829423E+07
 VX= 3.845575103737294E+00 VY=-1.183235822538746E+01 VZ=-3.692726393132961E-02
 LT= 2.722625900326830E+03 RG= 8.162227108734432E+08 RR=-3.466936946903638E-02
2453517.500000000 = A.D. 2005-May-27 00:00:00.0000 TDB 
 X =-7.764070697987337E+08 Y =-2.511323650141969E+08 Z = 1.841634133695258E+07
 VX= 3.861967280285239E+00 VY=-1.182706970932137E+01 VZ=-3.731604546538936E-02
 LT= 2.722615787151930E+03 RG= 8.162196790198818E+08 RR=-3.551242175469586E-02
2453518.500000000 = A.D. 2005-May-28 00:00:00.0000 TDB 
 X =-7.760726879283489E+08 Y =-2.521539945965643E+08 Z = 1.841310043713441E+07
 VX= 3.878352659205806E+00 VY=-1.182175962111001E+01 VZ=-3.770477503301262E-02
 LT= 2.722605431013134E+03 RG= 8.162165743275766E+08 RR=-3.635545280949740E-02
2453519.500000000 = A.D. 2005-May-29 00:00:00.0000 TDB 
 X =-7.757368906554335E+08 Y =-2.531751644556437E+08 Z = 1.840982595331207E+07
 VX= 3.894731225280098E+00 VY=-1.181642796752229E+01 VZ=-3.809345302839962E-02
 LT= 2.722594831915360E+03 RG= 8.162133967980026E+08 RR=-3.719847118536563E-02
2453520.500000000 = A.D. 2005-May-30 00:00:00.0000 TDB 
 X =-7.753996785692506E+08 Y =-2.541958727284108E+08 Z = 1.840651788992774E+07
 VX= 3.911102963934924E+00 VY=-1.181107475340016E+01 VZ=-3.848207974568574E-02
 LT= 2.722583989860884E+03 RG= 8.162101464318414E+08 RR=-3.804148663227046E-02
2453521.500000000 = A.D. 2005-May-31 00:00:00.0000 TDB 
 X =-7.750610522603083E+08 Y =-2.552161175521661E+08 Z = 1.840317625140476E+07
 VX= 3.927467860824054E+00 VY=-1.180569998138906E+01 VZ=-3.887065531836953E-02
 LT= 2.722572904849030E+03 RG= 8.162068232288907E+08 RR=-3.888450979656871E-02
2453522.500000000 = A.D. 2005-Jun-01 00:00:00.0000 TDB 
 X =-7.747210123203638E+08 Y =-2.562358970643383E+08 Z = 1.839980104216395E+07
 VX= 3.943825901303840E+00 VY=-1.180030365178318E+01 VZ=-3.925917965834103E-02
 LT= 2.722561576875980E+03 RG= 8.162034271880060E+08 RR=-3.972755178649087E-02
2453523.500000000 = A.D. 2005-Jun-02 00:00:00.0000 TDB 
 X =-7.743795593424736E+08 Y =-2.572552094022778E+08 Z = 1.839639226664554E+07
 VX= 3.960177069830351E+00 VY=-1.179488576250563E+01 VZ=-3.964765239901880E-02
 LT= 2.722550005934710E+03 RG= 8.161999583070815E+08 RR=-4.057062362356740E-02
2453524.500000000 = A.D. 2005-Jun-03 00:00:00.0000 TDB 
 X =-7.740366939210987E+08 Y =-2.582740527030604E+08 Z = 1.839294992933485E+07
 VX= 3.976521349342982E+00 VY=-1.178944630931721E+01 VZ=-4.003607285557820E-02
 LT= 2.722538192015111E+03 RG= 8.161964165830864E+08 RR=-4.141373561099737E-02
2453525.500000000 = A.D. 2005-Jun-04 00:00:00.0000 TDB 
 X =-7.736924166522593E+08 Y =-2.592924251033138E+08 Z = 1.838947403479110E+07
 VX= 3.992858720711152E+00 VY=-1.178398528615566E+01 VZ=-4.042444000176459E-02
 LT= 2.722526135104278E+03 RG= 8.161928020121515E+08 RR=-4.225689672066105E-02
2453526.500000000 = A.D. 2005-Jun-05 00:00:00.0000 TDB 
 X =-7.733467281337354E+08 Y =-2.603103247390821E+08 Z = 1.838596458767691E+07
 VX= 4.009189162279386E+00 VY=-1.177850268568002E+01 VZ=-4.081275247249216E-02
 LT= 2.722513835186984E+03 RG= 8.161891145897127E+08 RR=-4.310011400709121E-02
2453527.500000000 = A.D. 2005-Jun-06 00:00:00.0000 TDB 
 X =-7.729996289652973E+08 Y =-2.613277497457435E+08 Z = 1.838242159278652E+07
 VX= 4.025512649590032E+00 VY=-1.177299849993664E+01 VZ=-4.120100859269105E-02
 LT= 2.722501292246304E+03 RG= 8.161853543106959E+08 RR=-4.394339214777886E-02
2453528.500000000 = A.D. 2005-Jun-07 00:00:00.0000 TDB 
 X =-7.726511197489531E+08 Y =-2.623446982579883E+08 Z = 1.837884505507047E+07
 VX= 4.041829155318383E+00 VY=-1.176747272106775E+01 VZ=-4.158920642910413E-02
 LT= 2.722488506264344E+03 RG= 8.161815211697361E+08 RR=-4.478673316644238E-02
2453529.500000000 = A.D. 2005-Jun-08 00:00:00.0000 TDB 
 X =-7.723012010891910E+08 Y =-2.633611684098567E+08 Z = 1.837523497965516E+07
 VX= 4.058138649418810E+00 VY=-1.176192534198998E+01 VZ=-4.197734385901875E-02
 LT= 2.722475477223019E+03 RG= 8.161776151614116E+08 RR=-4.563013636007951E-02
2453530.500000000 = A.D. 2005-Jun-09 00:00:00.0000 TDB 
 X =-7.719498735932008E+08 Y =-2.643771583348316E+08 Z = 1.837159137185565E+07
 VX= 4.074441099453082E+00 VY=-1.175635635698174E+01 VZ=-4.236541864825139E-02
 LT= 2.722462205104824E+03 RG= 8.161736362804754E+08 RR=-4.647359842183330E-02
2453531.500000000 = A.D. 2005-Jun-10 00:00:00.0000 TDB 
 X =-7.715971378710629E+08 Y =-2.653926661659777E+08 Z = 1.836791423718213E+07
 VX= 4.090736471052780E+00 VY=-1.175076576213183E+01 VZ=-4.275342853011477E-02
 LT= 2.722448689893556E+03 RG= 8.161695845220689E+08 RR=-4.731711372979458E-02
2453532.500000000 = A.D. 2005-Jun-11 00:00:00.0000 TDB 
 X =-7.712429945358908E+08 Y =-2.664076900361100E+08 Z = 1.836420358133924E+07
 VX= 4.107024728457236E+00 VY=-1.174515355562012E+01 VZ=-4.314137127758144E-02
 LT= 2.722434931574913E+03 RG= 8.161654598819048E+08 RR=-4.816067475675796E-02
